WORLDVIEW-3 (WV-3)      
1 40115U 14048A   26062.77789696  .00001337  00000+0  16374-3 0  9990
2 40115  97.8645 139.0488 0000585  13.8181 346.3049 14.84818534626262
GAOFEN-2                
1 40118U 14049A   26062.83397588  .00000338  00000+0  50889-4 0  9996
2 40118  98.0242 127.0940 0006589 205.5521 154.5366 14.80758956623646
YAOGAN-21               
1 40143U 14053A   26062.89076005  .00005438  00000+0  22152-3 0  9990
2 40143  97.1628 107.6830 0010169 103.5371 256.7000 15.24823655638906
YAOGAN-22               
1 40275U 14063A   26062.39858778 -.00000040  00000+0  16749-4 0  9998
2 40275 100.7524 211.9867 0006723  71.3250 288.8591 13.15526745545902
ASNARO                  
1 40298U 14070A   26062.86526869  .00009681  00000+0  45680-3 0  9990
2 40298  97.3528 141.7794 0007116 159.5048 200.6474 15.19637332628019
YAOGAN-24               
1 40310U 14072A   26062.88160325  .00001693  00000+0  25203-3 0  9994
2 40310  98.1290 199.4384 0012063 238.6796 121.3233 14.76216288608183
CBERS 4                 
1 40336U 14079A   26062.85787681  .00000005  00000+0  16553-4 0  9991
2 40336  98.3500 123.0575 0000812  54.1918 305.9344 14.35410290588845
YAOGAN-26               
1 40362U 14088A   26062.83644741  .00031743  00000+0  72221-3 0  9993
2 40362  97.0660  65.8350 0007427  78.9499 281.2585 15.42888380621432
SMAP                    
1 40376U 15003A   26062.71228016  .00000771  00000+0  15835-3 0  9991
2 40376  98.1310  71.2846 0001234 112.8375 247.2957 14.63329979592194
KOMPSAT-3A              
1 40536U 15014A   26062.90783936  .00031482  00000+0  54968-3 0  9992
2 40536  97.6864  47.0364 0062870 198.5077 161.3886 15.48381170605499
SENTINEL-2A             
1 40697U 15028A   26056.18000490  .00000159  00000+0  76852-4 0  9999
2 40697  98.5024 132.8928 0054368 194.7437 165.2162 14.30192923557712
GAOFEN-8                
1 40701U 15030A   26062.84361126  .00029355  00000+0  68429-3 0  9993
2 40701  97.6928 250.1662 0009366 209.6593 150.4123 15.42166357595190
CARBONITE 1 (CBNT-1)    
1 40718U 15032D   26062.81968593  .00002889  00000+0  35965-3 0  9993
2 40718  97.6452 245.3398 0013266 281.7999  78.1727 14.83184973573726
YAOGAN-27               
1 40878U 15040A   26062.89166528 -.00000391  00000+0 -91785-3 0  9995
2 40878 100.1090  53.8740 0008887  96.6611 263.5514 13.16063374503814
GAOFEN-9 01             
1 40894U 15047A   26062.85773797  .00001484  00000+0  18912-3 0  9991
2 40894  97.6426 103.2785 0028725 124.0994 236.2952 14.82664325564588
YAOGAN-28               
1 41026U 15064A   26062.86478295  .00011814  00000+0  46288-3 0  9999
2 41026  97.2890 203.4917 0010729 197.2517 162.8358 15.25878459574617
YAOGAN-29               
1 41038U 15069A   26062.85691597  .00000399  00000+0  55811-4 0  9997
2 41038  98.0150  91.2705 0002267  46.4335 313.7066 14.82987641555019
