[{"OBJECT_NAME":"WORLDVIEW-3 (WV-3)","OBJECT_ID":"2014-048A","EPOCH":"2026-03-03T18:40:10.297344","MEAN_MOTION":14.84818534,"ECCENTRICITY":5.85e-5,"INCLINATION":97.8645,"RA_OF_ASC_NODE":139.0488,"ARG_OF_PERICENTER":13.8181,"MEAN_ANOMALY":346.3049,"EPHEMERIS_TYPE":0,"CLASSIFICATION_TYPE":"U","NORAD_CAT_ID":40115,"ELEMENT_SET_NO":999,"REV_AT_EPOCH":62626,"BSTAR":0.00016374,"MEAN_MOTION_DOT":1.337e-5,"MEAN_MOTION_DDOT":0},{"OBJECT_NAME":"GAOFEN-2","OBJECT_ID":"2014-049A","EPOCH":"2026-03-03T20:00:55.516032","MEAN_MOTION":14.80758956,"ECCENTRICITY":0.0006589,"INCLINATION":98.0242,"RA_OF_ASC_NODE":127.094,"ARG_OF_PERICENTER":205.5521,"MEAN_ANOMALY":154.5366,"EPHEMERIS_TYPE":0,"CLASSIFICATION_TYPE":"U","NORAD_CAT_ID":40118,"ELEMENT_SET_NO":999,"REV_AT_EPOCH":62364,"BSTAR":5.0889e-5,"MEAN_MOTION_DOT":3.38e-6,"MEAN_MOTION_DDOT":0},{"OBJECT_NAME":"YAOGAN-21","OBJECT_ID":"2014-053A","EPOCH":"2026-03-03T21:22:41.668320","MEAN_MOTION":15.24823655,"ECCENTRICITY":0.0010169,"INCLINATION":97.1628,"RA_OF_ASC_NODE":107.683,"ARG_OF_PERICENTER":103.5371,"MEAN_ANOMALY":256.7,"EPHEMERIS_TYPE":0,"CLASSIFICATION_TYPE":"U","NORAD_CAT_ID":40143,"ELEMENT_SET_NO":999,"REV_AT_EPOCH":63890,"BSTAR":0.00022152,"MEAN_MOTION_DOT":5.438e-5,"MEAN_MOTION_DDOT":0},{"OBJECT_NAME":"YAOGAN-22","OBJECT_ID":"2014-063A","EPOCH":"2026-03-03T09:33:57.984192","MEAN_MOTION":13.15526745,"ECCENTRICITY":0.00067233,"INCLINATION":100.7524,"RA_OF_ASC_NODE":211.9867,"ARG_OF_PERICENTER":71.325,"MEAN_ANOMALY":288.8591,"EPHEMERIS_TYPE":0,"CLASSIFICATION_TYPE":"U","NORAD_CAT_ID":40275,"ELEMENT_SET_NO":999,"REV_AT_EPOCH":54590,"BSTAR":1.6749235e-5,"MEAN_MOTION_DOT":-4.0e-7,"MEAN_MOTION_DDOT":0},{"OBJECT_NAME":"ASNARO","OBJECT_ID":"2014-070A","EPOCH":"2026-03-03T20:45:59.214816","MEAN_MOTION":15.19637332,"ECCENTRICITY":0.0007116,"INCLINATION":97.3528,"RA_OF_ASC_NODE":141.7794,"ARG_OF_PERICENTER":159.5048,"MEAN_ANOMALY":200.6474,"EPHEMERIS_TYPE":0,"CLASSIFICATION_TYPE":"U","NORAD_CAT_ID":40298,"ELEMENT_SET_NO":999,"REV_AT_EPOCH":62801,"BSTAR":0.0004568,"MEAN_MOTION_DOT":9.681e-5,"MEAN_MOTION_DDOT":0},{"OBJECT_NAME":"YAOGAN-24","OBJECT_ID":"2014-072A","EPOCH":"2026-03-03T21:09:30.520800","MEAN_MOTION":14.76216288,"ECCENTRICITY":0.0012063,"INCLINATION":98.129,"RA_OF_ASC_NODE":199.4384,"ARG_OF_PERICENTER":238.6796,"MEAN_ANOMALY":121.3233,"EPHEMERIS_TYPE":0,"CLASSIFICATION_TYPE":"U","NORAD_CAT_ID":40310,"ELEMENT_SET_NO":999,"REV_AT_EPOCH":60818,"BSTAR":0.00025203,"MEAN_MOTION_DOT":1.693e-5,"MEAN_MOTION_DDOT":0},{"OBJECT_NAME":"CBERS 4","OBJECT_ID":"2014-079A","EPOCH":"2026-03-03T20:35:20.556384","MEAN_MOTION":14.3541029,"ECCENTRICITY":8.12e-5,"INCLINATION":98.35,"RA_OF_ASC_NODE":123.0575,"ARG_OF_PERICENTER":54.1918,"MEAN_ANOMALY":305.9344,"EPHEMERIS_TYPE":0,"CLASSIFICATION_TYPE":"U","NORAD_CAT_ID":40336,"ELEMENT_SET_NO":999,"REV_AT_EPOCH":58884,"BSTAR":1.6553e-5,"MEAN_MOTION_DOT":5.0e-8,"MEAN_MOTION_DDOT":0},{"OBJECT_NAME":"YAOGAN-26","OBJECT_ID":"2014-088A","EPOCH":"2026-03-03T20:04:29.056224","MEAN_MOTION":15.4288838,"ECCENTRICITY":0.0007427,"INCLINATION":97.066,"RA_OF_ASC_NODE":65.835,"ARG_OF_PERICENTER":78.9499,"MEAN_ANOMALY":281.2585,"EPHEMERIS_TYPE":0,"CLASSIFICATION_TYPE":"U","NORAD_CAT_ID":40362,"ELEMENT_SET_NO":999,"REV_AT_EPOCH":62143,"BSTAR":0.00072221,"MEAN_MOTION_DOT":0.00031743,"MEAN_MOTION_DDOT":0},{"OBJECT_NAME":"SMAP","OBJECT_ID":"2015-003A","EPOCH":"2026-03-03T17:05:41.005824","MEAN_MOTION":14.63329979,"ECCENTRICITY":0.0001234,"INCLINATION":98.131,"RA_OF_ASC_NODE":71.2846,"ARG_OF_PERICENTER":112.8375,"MEAN_ANOMALY":247.2957,"EPHEMERIS_TYPE":0,"CLASSIFICATION_TYPE":"U","NORAD_CAT_ID":40376,"ELEMENT_SET_NO":999,"REV_AT_EPOCH":59219,"BSTAR":0.00015835,"MEAN_MOTION_DOT":7.71e-6,"MEAN_MOTION_DDOT":0},{"OBJECT_NAME":"KOMPSAT-3A","OBJECT_ID":"2015-014A","EPOCH":"2026-03-03T21:47:17.320704","MEAN_MOTION":15.4838117,"ECCENTRICITY":0.006287,"INCLINATION":97.6864,"RA_OF_ASC_NODE":47.0364,"ARG_OF_PERICENTER":198.5077,"MEAN_ANOMALY":161.3886,"EPHEMERIS_TYPE":0,"CLASSIFICATION_TYPE":"U","NORAD_CAT_ID":40536,"ELEMENT_SET_NO":999,"REV_AT_EPOCH":60549,"BSTAR":0.00054968,"MEAN_MOTION_DOT":0.00031482,"MEAN_MOTION_DDOT":0},{"OBJECT_NAME":"SENTINEL-2A","OBJECT_ID":"2015-028A","EPOCH":"2026-02-25T04:19:12.423360","MEAN_MOTION":14.30192923,"ECCENTRICITY":0.00543683,"INCLINATION":98.5024,"RA_OF_ASC_NODE":132.8928,"ARG_OF_PERICENTER":194.7437,"MEAN_ANOMALY":165.2162,"EPHEMERIS_TYPE":0,"CLASSIFICATION_TYPE":"U","NORAD_CAT_ID":40697,"ELEMENT_SET_NO":999,"REV_AT_EPOCH":55771,"BSTAR":7.6852184e-5,"MEAN_MOTION_DOT":1.59e-6,"MEAN_MOTION_DDOT":0},{"OBJECT_NAME":"GAOFEN-8","OBJECT_ID":"2015-030A","EPOCH":"2026-03-03T20:14:48.012864","MEAN_MOTION":15.42166357,"ECCENTRICITY":0.0009366,"INCLINATION":97.6928,"RA_OF_ASC_NODE":250.1662,"ARG_OF_PERICENTER":209.6593,"MEAN_ANOMALY":150.4123,"EPHEMERIS_TYPE":0,"CLASSIFICATION_TYPE":"U","NORAD_CAT_ID":40701,"ELEMENT_SET_NO":999,"REV_AT_EPOCH":59519,"BSTAR":0.00068429,"MEAN_MOTION_DOT":0.00029355,"MEAN_MOTION_DDOT":0},{"OBJECT_NAME":"CARBONITE 1 (CBNT-1)","OBJECT_ID":"2015-032D","EPOCH":"2026-03-03T19:40:20.864352","MEAN_MOTION":14.83184973,"ECCENTRICITY":0.0013266,"INCLINATION":97.6452,"RA_OF_ASC_NODE":245.3398,"ARG_OF_PERICENTER":281.7999,"MEAN_ANOMALY":78.1727,"EPHEMERIS_TYPE":0,"CLASSIFICATION_TYPE":"U","NORAD_CAT_ID":40718,"ELEMENT_SET_NO":999,"REV_AT_EPOCH":57372,"BSTAR":0.00035965,"MEAN_MOTION_DOT":2.889e-5,"MEAN_MOTION_DDOT":0},{"OBJECT_NAME":"YAOGAN-27","OBJECT_ID":"2015-040A","EPOCH":"2026-03-03T21:23:59.880192","MEAN_MOTION":13.16063374,"ECCENTRICITY":0.0008887,"INCLINATION":100.109,"RA_OF_ASC_NODE":53.874,"ARG_OF_PERICENTER":96.6611,"MEAN_ANOMALY":263.5514,"EPHEMERIS_TYPE":0,"CLASSIFICATION_TYPE":"U","NORAD_CAT_ID":40878,"ELEMENT_SET_NO":999,"REV_AT_EPOCH":50381,"BSTAR":-0.00091785,"MEAN_MOTION_DOT":-3.91e-6,"MEAN_MOTION_DDOT":0},{"OBJECT_NAME":"GAOFEN-9 01","OBJECT_ID":"2015-047A","EPOCH":"2026-03-03T20:35:08.560608","MEAN_MOTION":14.82664325,"ECCENTRICITY":0.0028725,"INCLINATION":97.6426,"RA_OF_ASC_NODE":103.2785,"ARG_OF_PERICENTER":124.0994,"MEAN_ANOMALY":236.2952,"EPHEMERIS_TYPE":0,"CLASSIFICATION_TYPE":"U","NORAD_CAT_ID":40894,"ELEMENT_SET_NO":999,"REV_AT_EPOCH":56458,"BSTAR":0.00018912,"MEAN_MOTION_DOT":1.484e-5,"MEAN_MOTION_DDOT":0},{"OBJECT_NAME":"YAOGAN-28","OBJECT_ID":"2015-064A","EPOCH":"2026-03-03T20:45:17.246880","MEAN_MOTION":15.25878459,"ECCENTRICITY":0.0010729,"INCLINATION":97.289,"RA_OF_ASC_NODE":203.4917,"ARG_OF_PERICENTER":197.2517,"MEAN_ANOMALY":162.8358,"EPHEMERIS_TYPE":0,"CLASSIFICATION_TYPE":"U","NORAD_CAT_ID":41026,"ELEMENT_SET_NO":999,"REV_AT_EPOCH":57461,"BSTAR":0.00046288,"MEAN_MOTION_DOT":0.00011814,"MEAN_MOTION_DDOT":0},{"OBJECT_NAME":"YAOGAN-29","OBJECT_ID":"2015-069A","EPOCH":"2026-03-03T20:33:57.539808","MEAN_MOTION":14.82987641,"ECCENTRICITY":0.0002267,"INCLINATION":98.015,"RA_OF_ASC_NODE":91.2705,"ARG_OF_PERICENTER":46.4335,"MEAN_ANOMALY":313.7066,"EPHEMERIS_TYPE":0,"CLASSIFICATION_TYPE":"U","NORAD_CAT_ID":41038,"ELEMENT_SET_NO":999,"REV_AT_EPOCH":55501,"BSTAR":5.5811e-5,"MEAN_MOTION_DOT":3.99e-6,"MEAN_MOTION_DDOT":0}]
